STARLINK-1527
1 26048C 20055X   21325.17377859 -.00001528  00000-0 -10233-3 0  3257
2 26048  53.0528 322.4500 0001839  61.8306 347.3434 15.06411254    16
